OBJECT_NAME,OBJECT_ID,EPOCH,MEAN_MOTION,ECCENTRICITY,INCLINATION,RA_OF_ASC_NODE,ARG_OF_PERICENTER,MEAN_ANOMALY,EPHEMERIS_TYPE,CLASSIFICATION_TYPE,NORAD_CAT_ID,ELEMENT_SET_NO,REV_AT_EPOCH,BSTAR,MEAN_MOTION_DOT,MEAN_MOTION_DDOT
ONEWEB-0277,2021-060AE,2026-07-11T14:15:54.500256,13.16594405,.0002168,87.9073,223.9349,99.9750,260.1626,0,U,48995,999,24277,-.11133E-3,-.3E-6,0
ONEWEB-0278,2021-060AF,2026-07-11T14:02:13.231104,13.16593572,.0002309,87.9078,223.9287,91.2173,268.9223,0,U,48996,999,24290,-.36309E-4,-.1E-7,0
ONEWEB-0279,2021-060AG,2026-07-11T14:13:37.091424,13.16593909,.0001884,87.9074,223.9250,101.4570,258.6772,0,U,48997,999,24283,.24274E-3,.106E-5,0
ONEWEB-0280,2021-060AH,2026-07-11T14:35:16.423872,13.16594141,.0002492,87.9083,223.9261,98.4129,261.7284,0,U,48998,999,24277,-.51451E-4,-.7E-7,0
ONEWEB-0281,2021-060AJ,2026-07-11T14:43:15.168000,13.16594252,.0002002,87.9070,223.9212,87.8866,272.2494,0,U,48999,999,24284,.44559E-3,.183E-5,0
ONEWEB-0282,2021-060AK,2026-07-11T13:37:08.169024,13.16595119,.0002089,87.9075,223.9371,96.3357,263.8012,0,U,49000,999,24281,.12535E-3,.61E-6,0
ONEWEB-0283,2021-060AL,2026-07-11T15:10:36.346368,13.16593315,.0002012,87.9074,223.9244,97.9916,262.1444,0,U,49001,999,24283,-.22173E-3,-.72E-6,0
ONEWEB-0284,2021-060AM,2026-07-11T15:01:30.060768,13.16593736,.0002394,87.9083,223.9186,92.4296,267.7109,0,U,49002,999,24281,.18529E-3,.84E-6,0
ONEWEB-0285,2021-075A,2026-07-11T20:05:47.753664,13.12438263,.0001253,87.8970,345.7590,82.2776,277.8495,0,U,49075,999,23844,-.29709E-2,-.1056E-4,0
ONEWEB-0286,2021-075B,2026-07-11T19:39:58.289760,13.12441604,.0001775,87.8961,345.7788,89.5201,270.6131,0,U,49076,999,23779,.67149E-4,.37E-6,0
ONEWEB-0287,2021-075C,2026-07-11T20:18:06.006240,13.17648159,.0001776,87.9128,0.9601,75.6634,284.4695,0,U,49077,999,23687,.32069E-3,.137E-5,0
ONEWEB-0288,2021-075D,2026-07-11T19:06:00.844704,13.12442903,.0001627,87.8959,345.7620,89.6895,270.4420,0,U,49078,999,23841,.16356E-2,.601E-5,0
ONEWEB-0289,2021-075E,2026-07-11T12:07:14.903904,13.17630413,.00024701,87.9147,1.0440,101.1516,258.9893,0,U,49079,999,23740,.65142203E-2,.2542E-4,0
ONEWEB-0290,2021-075F,2026-07-11T20:35:06.996768,13.17651238,.000222,87.9144,0.9489,95.8525,264.2860,0,U,49080,999,23686,.22209E-3,.99E-6,0
ONEWEB-0291,2021-075G,2026-07-11T20:13:15.602016,13.17646774,.0001908,87.9123,0.9575,80.7501,279.3846,0,U,49081,999,23685,.21925E-3,.98E-6,0
ONEWEB-0293,2021-075H,2026-07-11T20:49:41.445984,13.17650017,.0002085,87.9148,0.9562,93.1638,266.9732,0,U,49082,999,23688,-.18609E-4,.6E-7,0
ONEWEB-0294,2021-075J,2026-07-11T19:15:46.798272,13.12442548,.0002174,87.8967,345.7647,98.3432,261.7943,0,U,49083,999,23780,.11464E-2,.425E-5,0
ONEWEB-0295,2021-075K,2026-07-11T20:48:29.111040,13.17649794,.0002015,87.9138,0.9589,83.8122,276.3239,0,U,49084,999,23684,.32966E-4,.26E-6,0
ONEWEB-0296,2021-075L,2026-07-11T20:36:16.799328,13.12444809,.0001933,87.8959,345.7618,86.7642,273.3708,0,U,49085,999,23781,.43215E-3,.168E-5,0
ONEWEB-0297,2021-075M,2026-07-11T19:30:24.623136,13.12441737,.0002187,87.8957,345.7779,93.7387,266.3991,0,U,49086,999,23841,.63246E-3,.24E-5,0
ONEWEB-0298,2021-075N,2026-07-11T11:48:02.483424,13.17648838,.00015096,87.9129,1.0310,86.1075,274.0229,0,U,49087,999,23682,.5675949E-5,.15E-6,0
ONEWEB-0299,2021-075P,2026-07-11T11:50:14.620128,13.17647928,.00018939,87.9153,1.0142,86.0037,274.1311,0,U,49088,999,23680,.252328E-6,.13E-6,0
ONEWEB-0300,2021-075Q,2026-07-11T19:19:26.161824,13.12441848,.0001461,87.8967,345.7624,91.8207,268.3089,0,U,49089,999,23843,.12252E-2,.453E-5,0
ONEWEB-0301,2021-075R,2026-07-11T20:46:02.251776,13.12443537,.0001587,87.8974,345.7475,96.0760,264.0550,0,U,49090,999,23780,.71033E-3,.268E-5,0
ONEWEB-0302,2021-075S,2026-07-11T20:26:31.064352,13.12443113,.000208,87.8954,345.7628,95.0655,265.0711,0,U,49091,999,23778,-.4136E-3,-.136E-5,0
ONEWEB-0304,2021-075T,2026-07-11T20:20:31.922016,13.17646866,.0001642,87.9112,0.9630,85.7253,274.4067,0,U,49092,999,23682,.77746E-4,.43E-6,0
ONEWEB-0305,2021-075U,2026-07-11T20:10:48.760032,13.17647981,.0001998,87.9147,0.9514,80.0158,280.1199,0,U,49093,999,23685,-.5358E-4,-.8E-7,0
ONEWEB-0308,2021-075V,2026-07-11T20:16:44.925024,13.12442989,.0001547,87.8949,345.7546,92.7343,267.3963,0,U,49094,999,23779,.14015E-3,.63E-6,0
ONEWEB-0309,2021-075W,2026-07-11T20:15:40.379040,13.17650507,.0002276,87.9134,0.9576,92.6252,267.5140,0,U,49095,999,23682,.5328E-4,.34E-6,0
ONEWEB-0310,2021-075X,2026-07-11T20:38:42.932832,13.12444185,.0001786,87.8952,345.7728,96.5145,263.6187,0,U,49096,999,23842,.46884E-3,.181E-5,0
ONEWEB-0311,2021-075Y,2026-07-11T20:25:23.560896,13.17648362,.0001879,87.9153,0.9572,75.7567,284.3773,0,U,49097,999,23687,.41307E-4,.29E-6,0
